NORAD_CAT_ID,OBJECT_NAME,OBJECT_TYPE,EPOCH,MEAN_MOTION,ECCENTRICITY,INCLINATION,RA_OF_ASC_NODE,ARG_OF_PERICENTER,MEAN_ANOMALY,BSTAR,MEAN_MOTION_DOT,MEAN_MOTION_DDOT,TLE_LINE0,TLE_LINE1,TLE_LINE2,SEMIMAJOR_AXIS,PERIOD,APOGEE,PERIGEE,DECAYED
49766.0,STARLINK-3190,PAYLOAD,2022-03-23 14:00:01,15.29148858,0.0001503,53.2175,156.3899,61.8554,181.385,-0.024689,-0.0065752,0.0,0 STARLINK-3190,1 49766U 21115AU  22082.58334491 -.00657520  00000-0 -24689-1 0  9990,2 49766  53.2175 156.3899 0001503  61.8554 181.3850 15.29148858  3668,6856.4919999999975,94.17,479.388,477.327,0.0
49766.0,STARLINK-3190,PAYLOAD,2022-03-23 22:00:00,15.28685302,0.0001319,53.2175,154.8467,73.1104,205.8437,-0.025271,-0.00663014,0.0,0 STARLINK-3190,1 49766U 21115AU  22082.91667824 -.00663014  00000-0 -25271-1 0  9999,2 49766  53.2175 154.8467 0001319  73.1104 205.8437 15.28685302 18369,6857.878000000002,94.199,480.648,478.839,0.0
49766.0,STARLINK-3190,PAYLOAD,2022-03-24 14:00:01,15.27749905,0.0001406999999999,53.2175,151.7682,55.7785,292.9212,-0.025841,-0.00659056,0.0,0 STARLINK-3190,1 49766U 21115AU  22083.58334491 -.00659056  00000-0 -25841-1 0  9998,2 49766  53.2175 151.7682 0001407  55.7785 292.9212 15.27749905  3634,6860.677,94.256,483.508,481.577,0.0
49766.0,STARLINK-3190,PAYLOAD,2022-03-24 22:00:00,15.27284214,0.0001274999999999,53.2175,150.2282,59.8612,322.871,-0.026289,-0.00660838,0.0,0 STARLINK-3190,1 49766U 21115AU  22083.91667824 -.00660838  00000-0 -26289-1 0  9991,2 49766  53.2175 150.2282 0001275  59.8612 322.8710 15.27284214  3656,6862.071999999999,94.285,484.812,483.062,0.0
49766.0,STARLINK-3190,PAYLOAD,2022-03-25 00:00:02,15.27165623,0.0001395,53.2174,149.8435,57.709,63.508,-0.026229,-0.00657231,0.0,0 STARLINK-3190,1 49766U 21115AU  22084.00002315 -.00657231  00000-0 -26229-1 0  9997,2 49766  53.2174 149.8435 0001395  57.7090  63.5080 15.27165623 18522,6862.427,94.292,485.249,483.335,0.0
49766.0,STARLINK-3190,PAYLOAD,2022-03-25 14:00:01,15.26348517,0.0001568,53.2175,147.1564,46.9313,42.1827,-0.026866,-0.00656696,0.0,0 STARLINK-3190,1 49766U 21115AU  22084.58334491 -.00656696  00000-0 -26866-1 0  9994,2 49766  53.2175 147.1564 0001568  46.9313  42.1827 15.26348517  3640,6864.876,94.343,487.817,485.665,0.0
49766.0,STARLINK-3190,PAYLOAD,2022-03-25 22:00:01,15.25883142,0.0001382,53.2175,145.6196,59.3726,62.1555,-0.027314,-0.00658148,0.0,0 STARLINK-3190,1 49766U 21115AU  22084.91668981 -.00658148  00000-0 -27314-1 0  9998,2 49766  53.2175 145.6196 0001382  59.3726  62.1555 15.25883142  3652,6866.272,94.372,489.086,487.18800000000016,0.0
49766.0,STARLINK-3190,PAYLOAD,2022-03-26 06:00:00,15.25416803,0.0001614,53.2176,144.0857,51.1185,102.1352,-0.027717,-0.00658497,0.0,0 STARLINK-3190,1 49766U 21115AU  22085.25001157 -.00658497  00000-0 -27717-1 0  9996,2 49766  53.2176 144.0857 0001614  51.1185 102.1352 15.25416803 18716,6867.670999999999,94.4,490.645,488.42800000000005,0.0
49766.0,STARLINK-3190,PAYLOAD,2022-03-26 14:00:01,15.249467999999998,0.0001702,53.2175,142.5544,47.4514,137.0312,-0.027852,-0.0065282,0.0,0 STARLINK-3190,1 49766U 21115AU  22085.58334491 -.00652820  00000-0 -27852-1 0  9996,2 49766  53.2175 142.5544 0001702  47.4514 137.0312 15.24946800  3624,6869.081999999999,94.43,492.116,489.778,0.0
49766.0,STARLINK-3190,PAYLOAD,2022-03-26 22:00:00,15.24483358,0.0001474,53.2175,141.0207,61.8996,153.2509,-0.028464,-0.00657535,0.0,0 STARLINK-3190,1 49766U 21115AU  22085.91667824 -.00657535  00000-0 -28464-1 0  9990,2 49766  53.2175 141.0207 0001474  61.8996 153.2509 15.24483358  3648,6870.474,94.458,493.352,491.327,0.0
49766.0,STARLINK-3190,PAYLOAD,2022-03-27 14:00:01,15.23547706,0.0001518,53.2175,137.9622,55.3797,219.4248,-0.029065,-0.00653181,0.0,0 STARLINK-3190,1 49766U 21115AU  22086.58334491 -.00653181  00000-0 -29065-1 0  9996,2 49766  53.2175 137.9622 0001518  55.3797 219.4248 15.23547706 18928,6873.2869999999975,94.516,496.195,494.108,0.0
49766.0,STARLINK-3190,PAYLOAD,2022-03-27 22:00:01,15.23029993,0.0001503,53.218,136.4304,45.9063,257.9752,-0.026111,-0.00582546,0.0,0 STARLINK-3190,1 49766U 21115AU  22086.91668981 -.00582546  00000-0 -26111-1 0  9992,2 49766  53.2180 136.4304 0001503  45.9063 257.9752 15.23029993  3610,6874.844,94.548,497.74300000000005,495.676,0.0
49766.0,STARLINK-3190,PAYLOAD,2022-03-28 14:00:01,15.22149157,0.0001333,53.2175,133.3798,58.1456,301.9984,-0.030397,-0.00655087,0.0,0 STARLINK-3190,1 49766U 21115AU  22087.58335648 -.00655087  00000-0 -30397-1 0  9999,2 49766  53.2175 133.3798 0001333  58.1456 301.9984 15.22149157  3655,6877.496,94.603,500.278,498.445,0.0
49766.0,STARLINK-3190,PAYLOAD,2022-03-28 22:00:00,15.21582621,0.0001573,53.218,131.8513,36.0223,351.4188,-0.024289,-0.00517544,0.0,0 STARLINK-3190,1 49766U 21115AU  22087.91667824 -.00517544  00000-0 -24289-1 0  9998,2 49766  53.2180 131.8513 0001573  36.0223 351.4188 15.21582621 19123,6879.203,94.638,502.15,499.986,0.0
49766.0,STARLINK-3190,PAYLOAD,2022-03-29 06:00:02,15.21154039,0.0001496,53.2179,130.3272,50.6889,3.5371,-0.027048,-0.00571559,0.0,0 STARLINK-3190,1 49766U 21115AU  22088.25002315 -.00571559  00000-0 -27048-1 0  9996,2 49766  53.2179 130.3272 0001496  50.6889   3.5371 15.21154039 19173,6880.495,94.665,503.39,501.331,0.0
49766.0,STARLINK-3190,PAYLOAD,2022-03-29 14:00:01,15.20687217,0.0001735,53.2176,128.8059,43.8622,36.4807,-0.027248,-0.00568176,0.0,0 STARLINK-3190,1 49766U 21115AU  22088.58334491 -.00568176  00000-0 -27248-1 0  9998,2 49766  53.2176 128.8059 0001735  43.8622  36.4807 15.20687217 19223,6881.903,94.694,504.962,502.574,0.0
49766.0,STARLINK-3190,PAYLOAD,2022-03-29 22:00:00,15.20174097,0.0001484,53.218,127.2822,40.3997,65.6013,-0.025203,-0.00515365,0.0,0 STARLINK-3190,1 49766U 21115AU  22088.91667824 -.00515365  00000-0 -25203-1 0  9995,2 49766  53.2180 127.2822 0001484  40.3997  65.6013 15.20174097 19272,6883.4519999999975,94.726,506.339,504.296,0.0
49766.0,STARLINK-3190,PAYLOAD,2022-03-30 02:00:01,15.20045852,0.0001568,53.2177,126.5219,45.2021,253.3356,-0.032024,-0.00649145,0.0,0 STARLINK-3190,1 49766U 21115AU  22089.08334491 -.00649145  00000-0 -32024-1 0  9998,2 49766  53.2177 126.5219 0001568  45.2021 253.3356 15.20045852 19301,6883.839,94.734,506.784,504.625,0.0
49766.0,STARLINK-3190,PAYLOAD,2022-03-30 14:00:01,15.19267002,0.0002065,53.2174,124.2431,36.6855,118.9183,-0.027052,-0.00542765,0.0,0 STARLINK-3190,1 49766U 21115AU  22089.58335648 -.00542765  00000-0 -27052-1 0  9993,2 49766  53.2174 124.2431 0002065  36.6855 118.9183 15.19267002  3624,6886.191999999999,94.783,509.479,506.635,0.0
49766.0,STARLINK-3190,PAYLOAD,2022-03-30 22:00:00,15.18883374,0.0001857,53.2174,122.7242,40.4176,139.0204,-0.033487,-0.00662796,0.0,0 STARLINK-3190,1 49766U 21115AU  22089.91667824 -.00662796  00000-0 -33487-1 0  9990,2 49766  53.2174 122.7242 0001857  40.4176 139.0204 15.18883374 19422,6887.351,94.806,510.495,507.937,0.0
49766.0,STARLINK-3190,PAYLOAD,2022-03-31 14:00:01,15.17950377,0.0001634,53.2172,119.6918,51.8883,173.7473,-0.034403,-0.00662731,0.0,0 STARLINK-3190,1 49766U 21115AU  22090.58334491 -.00662731  00000-0 -34403-1 0  9994,2 49766  53.2172 119.6918 0001634  51.8883 173.7473 15.17950377  3646,6890.1730000000025,94.865,513.164,510.912,0.0
49766.0,STARLINK-3190,PAYLOAD,2022-03-31 22:00:00,15.174224800000005,0.0001879,53.2178,118.1732,36.5046,211.4211,-0.030019,-0.00569162,0.0,0 STARLINK-3190,1 49766U 21115AU  22090.91667824 -.00569162  00000-0 -30019-1 0  9993,2 49766  53.2178 118.1732 0001879  36.5046 211.4211 15.17422480 19581,6891.771,94.898,514.931,512.341,0.0
49766.0,STARLINK-3190,PAYLOAD,2022-04-01 08:00:01,15.16867442,0.0001695,53.2177,116.2818,46.0587,318.8876,-0.032849,-0.00609996,0.0,0 STARLINK-3190,1 49766U 21115AU  22091.33334491 -.00609996  00000-0 -32849-1 0  9994,2 49766  53.2177 116.2818 0001695  46.0587 318.8876 15.16867442 19642,6893.4519999999975,94.932,516.485,514.149,0.0
49766.0,STARLINK-3190,PAYLOAD,2022-04-01 14:00:01,15.1655237,0.0001617,53.2172,115.1486,47.8112,242.9174,-0.0359769999999999,-0.00665508,0.0,0 STARLINK-3190,1 49766U 21115AU  22091.58334491 -.00665508  00000-0 -35977-1 0  9997,2 49766  53.2172 115.1486 0001617  47.8112 242.9174 15.16552370  3645,6894.406999999997,94.952,517.387,515.1569999999998,0.0
49766.0,STARLINK-3190,PAYLOAD,2022-04-01 22:00:00,15.16082731,0.000167,53.2174,113.6347,42.445,268.8626,-0.036184,-0.00660711,0.0,0 STARLINK-3190,1 49766U 21115AU  22091.91667824 -.00660711  00000-0 -36184-1 0  9995,2 49766  53.2174 113.6347 0001670  42.4450 268.8626 15.16082731 19736,6895.83,94.982,518.847,516.544,0.0
49766.0,STARLINK-3190,PAYLOAD,2022-04-02 22:00:01,15.14574495,0.0001938,53.2176,109.1029,30.7951,339.0022,-0.029025,-0.00510764,0.0,0 STARLINK-3190,1 49766U 21115AU  22092.91668981 -.00510764  00000-0 -29025-1 0  9999,2 49766  53.2176 109.1029 0001938  30.7951 339.0022 15.14574495 19886,6900.408,95.076,523.61,520.935,0.0
49766.0,STARLINK-3190,PAYLOAD,2022-04-03 06:00:00,15.14111652,0.0001652,53.2178,107.5961,39.6132,348.4518,-0.029654,-0.00514769,0.0,0 STARLINK-3190,1 49766U 21115AU  22093.25001157 -.00514769  00000-0 -29654-1 0  9990,2 49766  53.2178 107.5961 0001652  39.6132 348.4518 15.14111652 19939,6901.814,95.105,524.819,522.539,0.0
49766.0,STARLINK-3190,PAYLOAD,2022-04-03 14:00:01,15.13752392,0.0001641,53.2171,106.0916,41.8946,3.8844,-0.038906,-0.00664603,0.0,0 STARLINK-3190,1 49766U 21115AU  22093.58334491 -.00664603  00000-0 -38906-1 0  9999,2 49766  53.2171 106.0916 0001641  41.8946   3.8844 15.13752392 19982,6902.906,95.128,525.904,523.638,0.0
49766.0,STARLINK-3190,PAYLOAD,2022-04-03 22:00:00,15.13283786,0.0001871,53.2173,104.5843,33.9501,29.0438,-0.039261,-0.00662051,0.0,0 STARLINK-3190,1 49766U 21115AU  22093.91667824 -.00662051  00000-0 -39261-1 0  9995,2 49766  53.2173 104.5843 0001871  33.9501  29.0438 15.13283786  3629,6904.331,95.157,527.488,524.904,0.0
